NORAD_CAT_ID,OBJECT_NAME,OBJECT_TYPE,EPOCH,MEAN_MOTION,ECCENTRICITY,INCLINATION,RA_OF_ASC_NODE,ARG_OF_PERICENTER,MEAN_ANOMALY,BSTAR,MEAN_MOTION_DOT,MEAN_MOTION_DDOT,TLE_LINE0,TLE_LINE1,TLE_LINE2,SEMIMAJOR_AXIS,PERIOD,APOGEE,PERIGEE,DECAYED
53858.0,STARLINK-4798,PAYLOAD,2023-05-16 14:34:58,15.08842467,9.61e-05,53.2145,219.5577,117.5242,242.5848,4.2141e-05,3.83e-06,0.0,0 STARLINK-4798,1 53858U 22114AS  23136.60761813  .00000383  00000-0  42141-4 0  9996,2 53858  53.2145 219.5577 0000961 117.5242 242.5848 15.08842467 37362,6917.873,95.437,540.403,539.073,0.0
53858.0,STARLINK-4798,PAYLOAD,2023-05-17 11:14:59,15.08839167,8.42e-05,53.2147,215.6915,82.9628,277.146,0.00010553,1.392e-05,0.0,0 STARLINK-4798,1 53858U 22114AS  23137.46874325  .00001392  00000-0  10553-3 0  9996,2 53858  53.2147 215.6915 0000842  82.9628 277.1460 15.08839167 37499,6917.883,95.438,540.33,539.165,0.0
53858.0,STARLINK-4798,PAYLOAD,2023-05-17 12:50:22,15.08840775,8.71e-05,53.2148,215.3939,80.3029,279.8061,0.00012071,1.634e-05,0.0,0 STARLINK-4798,1 53858U 22114AS  23137.53498255  .00001634  00000-0  12071-3 0  9994,2 53858  53.2148 215.3939 0000871  80.3029 279.8061 15.08840775 38047,6917.878,95.438,540.346,539.14,0.0
53858.0,STARLINK-4798,PAYLOAD,2023-05-18 14:16:32,15.08845128,9.66e-05,53.2147,210.6353,81.5542,278.5559,0.00015019,2.104e-05,0.0,0 STARLINK-4798,1 53858U 22114AS  23138.59482109  .00002104  00000-0  15019-3 0  9990,2 53858  53.2147 210.6353 0000966  81.5542 278.5559 15.08845128 38205,6917.865,95.437,540.398,539.061,0.0
53858.0,STARLINK-4798,PAYLOAD,2023-05-18 22:13:28,15.08842232,0.0001002,53.2148,209.1486,79.8235,280.287,0.00010556,1.393e-05,0.0,0 STARLINK-4798,1 53858U 22114AS  23138.92602249  .00001393  00000-0  10556-3 0  9996,2 53858  53.2148 209.1486 0001002  79.8235 280.2870 15.08842232 38251,6917.874,95.437,540.432,539.045,0.0
53858.0,STARLINK-4798,PAYLOAD,2023-05-19 10:56:33,15.08845221,9.9e-05,53.2154,206.7693,83.985,276.1255,9.5658e-05,1.235e-05,0.0,0 STARLINK-4798,1 53858U 22114AS  23139.45594044  .00001235  00000-0  95658-4 0  9990,2 53858  53.2154 206.7693 0000990  83.9850 276.1255 15.08845221 38336,6917.864,95.437,540.414,539.045,0.0
53858.0,STARLINK-4798,PAYLOAD,2023-05-19 22:04:15,15.0884612,0.0001038,53.2158,204.688,81.4077,278.7032,9.9793e-05,1.301e-05,0.0,0 STARLINK-4798,1 53858U 22114AS  23139.91961820  .00001301  00000-0  99793-4 0  9999,2 53858  53.2158 204.6880 0001038  81.4077 278.7032 15.08846120 37860,6917.862,95.437,540.445,539.009,0.0
53858.0,STARLINK-4798,PAYLOAD,2023-05-20 13:58:05,15.08851709,9.98e-05,53.2152,201.7134,86.0216,274.089,0.00012155,1.648e-05,0.0,0 STARLINK-4798,1 53858U 22114AS  23140.58201299  .00001648  00000-0  12155-3 0  9991,2 53858  53.2152 201.7134 0000998  86.0216 274.0890 15.08851709 38506,6917.845,95.437,540.4,539.019,0.0
53858.0,STARLINK-4798,PAYLOAD,2023-05-20 23:30:24,15.08848597,8.83e-05,53.2137,199.9273,101.9003,258.2089,5.5398e-05,5.94e-06,0.0,0 STARLINK-4798,1 53858U 22114AS  23140.97945399  .00000594  00000-0  55398-4 0  9996,2 53858  53.2137 199.9273 0000883 101.9003 258.2089 15.08848597 38027,6917.854,95.437,540.33,539.108,0.0
53858.0,STARLINK-4798,PAYLOAD,2023-05-21 07:27:20,15.08841849,9.82e-05,53.2136,198.4404,106.7227,253.3873,2.1082e-05,4.8e-07,0.0,0 STARLINK-4798,1 53858U 22114AS  23141.31065695  .00000048  00000-0  21082-4 0  9994,2 53858  53.2136 198.4404 0000982 106.7227 253.3873 15.08841849 38072,6917.875,95.437,540.419,539.06,0.0
53858.0,STARLINK-4798,PAYLOAD,2023-05-21 13:48:53,15.0884316,0.0001027,53.215,197.2512,109.8234,250.2868,3.3157e-05,2.4e-06,0.0,0 STARLINK-4798,1 53858U 22114AS  23141.57561601  .00000240  00000-0  33157-4 0  9990,2 53858  53.2150 197.2512 0001027 109.8234 250.2868 15.08843160 38650,6917.871,95.437,540.446,539.025,0.0
53858.0,STARLINK-4798,PAYLOAD,2023-05-21 20:10:26,15.08838984,9.02e-05,53.2145,196.0609,85.4326,274.6769,-6.3184e-06,-3.88e-06,0.0,0 STARLINK-4798,1 53858U 22114AS  23141.84058013 -.00000388  00000-0 -63184-5 0  9997,2 53858  53.2145 196.0609 0000902  85.4326 274.6769 15.08838984 38692,6917.883,95.438,540.372,539.125,0.0
53858.0,STARLINK-4798,PAYLOAD,2023-05-22 04:07:22,15.08837085,0.0001087,53.2141,194.5759,99.7234,260.3881,-6.1218e-05,-1.262e-05,0.0,0 STARLINK-4798,1 53858U 22114AS  23142.17178515 -.00001262  00000-0 -61218-4 0  9991,2 53858  53.2141 194.5759 0001087  99.7234 260.3881 15.08837085 38203,6917.889,95.438,540.506,539.002,0.0
53858.0,STARLINK-4798,PAYLOAD,2023-05-22 10:28:54,15.08837121,0.0001088,53.2157,193.3875,85.7136,274.3981,-5.6275e-05,-1.183e-05,0.0,0 STARLINK-4798,1 53858U 22114AS  23142.43674597 -.00001183  00000-0 -56275-4 0  9990,2 53858  53.2157 193.3875 0001088  85.7136 274.3981 15.08837121 38783,6917.889,95.438,540.507,539.002,0.0
53858.0,STARLINK-4798,PAYLOAD,2023-05-22 20:01:13,15.08837753,0.000105,53.2154,191.6031,98.0098,262.1013,-1.9958e-05,-6.05e-06,0.0,0 STARLINK-4798,1 53858U 22114AS  23142.83418479 -.00000605  00000-0 -19958-4 0  9994,2 53858  53.2154 191.6031 0001050  98.0098 262.1013 15.08837753 38847,6917.887,95.438,540.479,539.026,0.0
53858.0,STARLINK-4798,PAYLOAD,2023-05-23 08:44:18,15.08832968,0.0001339,53.2155,189.2239,118.4532,241.6595,3.1314e-05,2.1e-06,0.0,0 STARLINK-4798,1 53858U 22114AS  23143.36410811  .00000210  00000-0  31314-4 0  9995,2 53858  53.2155 189.2239 0001339 118.4532 241.6595 15.08832968 38380,6917.902,95.438,540.693,538.841,0.0
53858.0,STARLINK-4798,PAYLOAD,2023-05-23 19:52:00,15.08838557,0.000101,53.2157,187.144,103.0253,257.0852,2.5801e-05,1.23e-06,0.0,0 STARLINK-4798,1 53858U 22114AS  23143.82778670  .00000123  00000-0  25801-4 0  9993,2 53858  53.2157 187.1440 0001010 103.0253 257.0852 15.08838557 38993,6917.885,95.438,540.449,539.051,0.0
53858.0,STARLINK-4798,PAYLOAD,2023-05-24 08:35:06,15.08834613,0.0001038,53.2159,184.7662,93.4144,266.6966,0.00012778,1.746e-05,0.0,0 STARLINK-4798,1 53858U 22114AS  23144.35770996  .00001746  00000-0  12778-3 0  9995,2 53858  53.2159 184.7662 0001038  93.4144 266.6966 15.08834613 39076,6917.897,95.438,540.48,539.044,0.0
53858.0,STARLINK-4798,PAYLOAD,2023-05-26 08:16:40,15.08840499,0.0001017,53.2152,175.8434,84.7426,275.3682,4.4992e-05,4.28e-06,0.0,0 STARLINK-4798,1 53858U 22114AS  23146.34490981  .00000428  00000-0  44992-4 0  9999,2 53858  53.2152 175.8434 0001017  84.7426 275.3682 15.08840499 38834,6917.879,95.438,540.447,539.04,0.0
53858.0,STARLINK-4798,PAYLOAD,2023-05-26 11:27:26,15.08841319,0.0001023,53.2152,175.2485,84.5348,275.5761,4.9548e-05,5.01e-06,0.0,0 STARLINK-4798,1 53858U 22114AS  23146.47738901  .00000501  00000-0  49548-4 0  9994,2 53858  53.2152 175.2485 0001023  84.5348 275.5761 15.08841319 39396,6917.876,95.437,540.449,539.034,0.0
53858.0,STARLINK-4798,PAYLOAD,2023-05-27 08:07:27,15.08842395,0.0001007,53.2149,171.3824,84.6623,275.4484,4.2503e-05,3.89e-06,0.0,0 STARLINK-4798,1 53858U 22114AS  23147.33850698  .00000389  00000-0  42503-4 0  9996,2 53858  53.2149 171.3824 0001007  84.6623 275.4484 15.08842395 39526,6917.873,95.437,540.435,539.041,0.0
53858.0,STARLINK-4798,PAYLOAD,2023-05-27 22:25:55,15.08839755,0.0001008,53.2149,168.7058,86.7761,273.3347,4.4117e-05,4.14e-06,0.0,0 STARLINK-4798,1 53858U 22114AS  23147.93466815  .00000414  00000-0  44117-4 0  9998,2 53858  53.2149 168.7058 0001008  86.7761 273.3347 15.08839755 39073,6917.881,95.438,540.443,539.049,0.0
53858.0,STARLINK-4798,PAYLOAD,2023-05-28 06:22:51,15.08839655,0.0001012,53.2149,167.2189,86.351,273.7598,3.947e-05,3.4e-06,0.0,0 STARLINK-4798,1 53858U 22114AS  23148.26586862  .00000340  00000-0  39470-4 0  9994,2 53858  53.2149 167.2189 0001012  86.3510 273.7598 15.08839655 39661,6917.881,95.438,540.447,539.046,0.0
53858.0,STARLINK-4798,PAYLOAD,2023-05-28 11:09:00,15.0884049,0.0001019,53.2148,166.3268,85.9257,274.1851,4.4777e-05,4.25e-06,0.0,0 STARLINK-4798,1 53858U 22114AS  23148.46458799  .00000425  00000-0  44777-4 0  9993,2 53858  53.2148 166.3268 0001019  85.9257 274.1851 15.08840490 39697,6917.879,95.438,540.449,539.039,0.0
53858.0,STARLINK-4798,PAYLOAD,2023-05-29 04:38:14,15.08839916,0.0001023,53.2148,163.0556,84.9743,275.1366,3.3685e-05,2.48e-06,0.0,0 STARLINK-4798,1 53858U 22114AS  23149.19322847  .00000248  00000-0  33685-4 0  9997,2 53858  53.2148 163.0556 0001023  84.9743 275.1366 15.08839916 39261,6917.881,95.438,540.453,539.038,0.0
53858.0,STARLINK-4798,PAYLOAD,2023-05-29 10:59:47,15.08840108,0.0001029,53.2149,161.8662,84.2494,275.8615,2.9183e-05,1.77e-06,0.0,0 STARLINK-4798,1 53858U 22114AS  23149.45818831  .00000177  00000-0  29183-4 0  9998,2 53858  53.2149 161.8662 0001029  84.2494 275.8615 15.08840108 39841,6917.88,95.438,540.457,539.033,0.0
53858.0,STARLINK-4798,PAYLOAD,2023-05-29 17:21:20,15.0883768,0.0001017,53.2148,160.6761,83.6741,276.4367,1.4937e-05,-5e-07,0.0,0 STARLINK-4798,1 53858U 22114AS  23149.72315037 -.00000050  00000-0  14937-4 0  9990,2 53858  53.2148 160.6761 0001017  83.6741 276.4367 15.08837680 39888,6917.887,95.438,540.456,539.049,0.0
53858.0,STARLINK-4798,PAYLOAD,2023-05-30 01:18:16,15.08834418,0.0001062,53.2148,159.1896,88.8322,271.2792,9.536e-06,-1.36e-06,0.0,0 STARLINK-4798,1 53858U 22114AS  23150.05435319 -.00000136  00000-0  95360-5 0  9999,2 53858  53.2148 159.1896 0001062  88.8322 271.2792 15.08834418 39399,6917.897,95.438,540.497,539.028,0.0
53858.0,STARLINK-4798,PAYLOAD,2023-05-30 06:04:25,15.08834585,0.0001058,53.2149,158.2975,88.3254,271.786,9.2294e-06,-1.41e-06,0.0,0 STARLINK-4798,1 53858U 22114AS  23150.25307359 -.00000141  00000-0  92294-5 0  9992,2 53858  53.2149 158.2975 0001058  88.3254 271.7860 15.08834585 39961,6917.897,95.438,540.494,539.03,0.0
53858.0,STARLINK-4798,PAYLOAD,2023-05-31 04:19:49,15.08839259,0.0001055,53.215,154.1341,88.1323,271.979,4.6353e-05,4.5e-06,0.0,0 STARLINK-4798,1 53858U 22114AS  23151.18043140  .00000450  00000-0  46353-4 0  9996,2 53858  53.2150 154.1341 0001055  88.1323 271.9790 15.08839259 39560,6917.883,95.438,540.477,539.018,0.0
